GUOWANG GROUP 20 OBJECT*
1 68131U 26047C   26092.50577046 -.00000096  00000+0  42136-4 0  9996
2 68131  50.0019 334.0677 0000669 236.5521 123.5312 13.86320500  2907
GUOWANG GROUP 20 OBJECT*
1 68132U 26047D   26092.57516225 -.00000084  00000+0  51916-4 0  9999
2 68132  50.0067 333.7806 0000710 245.0360 115.0463 13.86594040  2909
GUOWANG GROUP 20 OBJECT*
1 68133U 26047E   26092.71630789 -.00000104  00000+0  35303-4 0  9993
2 68133  50.0032 333.1791 0000640 212.5320 147.5538 13.86278934  2933
GUOWANG GROUP 20 OBJECT*
1 68134U 26047F   26092.56694514 -.00000033  00000+0  95092-4 0  9995
2 68134  50.0093 333.7419 0000629 256.4099 103.6728 13.87190720  2909
GUOWANG GROUP 20 OBJECT*
1 68135U 26047G   26092.56949596  .00000009  00000+0  13110-3 0  9991
2 68135  50.0112 333.7611 0000927 224.2337 135.8486 13.87026021  2916
GUOWANG GROUP 20 OBJECT*
1 68136U 26047H   26092.49226754 -.00000088  00000+0  48251-4 0  9991
2 68136  50.0086 334.0113 0000909 305.9014  54.1799 13.87381469  2894
GUOWANG GROUP 20 OBJECT*
1 68137U 26047J   26092.70556402 -.00000116  00000+0  24623-4 0  9991
2 68137  50.0058 333.1317 0000669 182.6269 177.4625 13.87066479  2938
CZ-8A R/B               
1 68138U 26047K   26093.31174175  .00000010  00000+0  88056-4 0  9995
2 68138  49.9534 328.8619 0044758 222.8160 136.9258 14.12232889  3038
SHIYAN-30 03            
1 68139U 26048A   26093.20141786  .00004639  00000+0  45422-3 0  9997
2 68139  35.0016 357.1715 0002550  51.0047 309.0885 14.91766167  3163
SHIYAN-30 04            
1 68140U 26048B   26093.20211171  .00004463  00000+0  43711-3 0  9999
2 68140  34.9930 357.1698 0001016  52.8418 307.2379 14.91764267  3162
CZ-2D R/B               
1 68141U 26048C   26093.14999179  .00002766  00000+0  24659-3 0  9998
2 68141  35.1310 357.1254 0015666 181.4408 178.6257 14.95588633  3160
STARLINK-36604          
1 68142U 26049A   26093.25001157  .00022599  00000+0  15259-3 0  9994
2 68142  97.2848 113.7226 0001603  88.3835 339.3335 15.75096237  4578
